BEIDOU-2 G6             
1 38953U 12059A   26157.87316742 -.00000162  00000+0  00000+0 0  9992
2 38953   4.3949  73.6308 0010388 324.3452 255.6355  1.00275119 49807
LUCH-5B                 
1 38977U 12061A   26157.98591054 -.00000126  00000+0  00000+0 0  9994
2 38977  10.4589  49.9805 0001756 137.0640  46.9761  1.00274188 49500
YAMAL 300K              
1 38978U 12061B   26158.23923604  .00000085  00000+0  00000+0 0  9997
2 38978   0.0137 267.8782 0001115 312.4959 304.3579  1.00271221 49537
STAR ONE C3             
1 38991U 12062A   26158.27447088 -.00000235  00000+0  00000+0 0  9992
2 38991   0.0178 353.7967 0002567  99.1135 186.5858  1.00269978 49664
EUTELSAT 21B            
1 38992U 12062B   26158.20725664  .00000144  00000+0  00000+0 0  9993
2 38992   0.0657 350.7624 0003017  81.2324 279.8049  1.00270520 49727
ECHOSTAR 16             
1 39008U 12065A   26158.16780808 -.00000268  00000+0  00000+0 0  9999
2 39008   0.0179 347.8372 0001654  96.2792 170.3824  1.00270485 49548
YAOGAN-16 01A           
1 39011U 12066A   26158.14658579 -.00000056  00000+0  33502-4 0  9994
2 39011  63.3547 315.7371 0434629  27.0640 335.2340 13.45516084664797
YAOGAN-16 01B           
1 39012U 12066B   26158.15114705 -.00000068  00000+0  21622-4 0  9997
2 39012  63.3550 315.9455 0434812  26.8074 335.4720 13.45513007664751
YAOGAN-16 01C           
1 39013U 12066C   26158.22526956  .00000031  00000+0  11555-3 0  9993
2 39013  63.3558 315.2482 0434949  26.3683 335.8784 13.45504944664793
ZHONGXING-12            
1 39017U 12067A   26158.11969247 -.00000193  00000+0  00000+0 0  9999
2 39017   0.0482  96.3930 0003357 336.6816 313.0531  1.00271409 49404
PLEIADES 1B             
1 39019U 12068A   26158.26952637  .00000387  00000+0  93056-4 0  9995
2 39019  98.1942 233.4575 0001576  95.6797 264.4582 14.58554881719409
EUTELSAT 70B            
1 39020U 12069A   26158.13447851 -.00000029  00000+0  00000+0 0  9997
2 39020   0.0613 353.3612 0003972  75.6662 305.4125  1.00271560 49401
YAMAL 402               
1 39022U 12070A   26158.21384334  .00000100  00000+0  00000+0 0  9995
2 39022   1.2386  84.2872 0003920 348.4470 314.7682  1.00271629 49296
GOKTURK 2               
1 39030U 12073A   26158.24787569  .00000682  00000+0  10708-3 0  9992
2 39030  97.6823 356.1773 0001943  62.0161 298.1246 14.75533148723046
SKYNET 5D               
1 39034U 12075A   26158.21349668  .00000113  00000+0  00000+0 0  9998
2 39034   0.0661 359.5528 0003876  84.9715 300.7340  1.00272593 49053
MEXSAT 3                
1 39035U 12075B   26158.25153152 -.00000011  00000+0  00000+0 0  9992
2 39035   0.0233  74.8954 0001410 353.9693 162.5612  1.00269028  6952
COSMOS 2482 (RODNIK-S 4)
1 39057U 13001A   26158.30037995 -.00000053  00000+0 -45513-3 0  9997
2 39057  82.4983 226.5079 0028326  48.8067 311.5449 12.42995849607480
COSMOS 2483 (RODNIK-S 5)
1 39058U 13001B   26158.30450788  .00000074  00000+0  45443-3 0  9990
2 39058  82.4993 221.0655 0017215  38.6621 321.5689 12.44025057600364
COSMOS 2484 (RODNIK-S 6)
1 39059U 13001C   26158.24536888  .00000011  00000+0  62686-5 0  9991
2 39059  82.5018 228.0730 0027232  57.7601 302.6113 12.42938860607323
TDRS 11                 
1 39070U 13004A   26158.32008050  .00000093  00000+0  00000+0 0  9997
2 39070   3.5069  31.1026 0005666  15.5930 149.9793  1.00265987 46597
GLOBALSTAR M097         
1 39072U 13005A   26158.02716479 -.00000078  00000+0  14121-3 0  9995
2 39072  52.0060 274.2639 0000478 120.9272 239.1642 12.62247287615629
GLOBALSTAR M093         
1 39073U 13005B   26158.00052752 -.00000083  00000+0  11356-3 0  9994
2 39073  52.0112 267.6879 0000337 107.0799 253.0105 12.62265677615570
GLOBALSTAR M094         
1 39074U 13005C   26158.31718859 -.00000102  00000+0  10824-4 0  9998
2 39074  51.9930 180.8511 0000166 325.7615  34.3241 12.62268522617229
GLOBALSTAR M096         
1 39075U 13005D   26157.93471683 -.00000090  00000+0  79096-4 0  9999
2 39075  52.0064 230.8093 0000222 154.5582 205.5296 12.62265406616099
GLOBALSTAR M078         
1 39076U 13005E   26158.14523683 -.00000121  00000+0 -95424-4 0  9991
2 39076  51.9892 314.1897 0000651 191.4164 168.6688 12.62259796614746
GLOBALSTAR M095         
1 39077U 13005F   26158.17201622 -.00000091  00000+0  72705-4 0  9993
2 39077  52.0095 311.6986 0000400 120.5554 239.5352 12.62263339614602
AMAZONAS 3              
1 39078U 13006A   26158.16780808 -.00000268  00000+0  00000+0 0  9992
2 39078   0.0292 188.6820 0002193 279.8679 146.4475  1.00270545 44810
AZERSPACE 1             
1 39079U 13006B   26158.21211000  .00000147  00000+0  00000+0 0  9997
2 39079   0.0339  75.4552 0001443  29.1936 273.3194  1.00272178 48701
LANDSAT 8               
1 39084U 13008A   26157.93023969  .00000331  00000+0  83481-4 0  9992
2 39084  98.2302 228.1869 0001459  96.6119 263.5245 14.57111856696408
SARAL                   
1 39086U 13009A   26158.26460882  .00000101  00000+0  53067-4 0  9993
2 39086  98.5558 344.9578 0001268 355.4175   4.6997 14.32853562694187
SAPPHIRE                
1 39088U 13009C   26158.26233264  .00000127  00000+0  59520-4 0  9995
2 39088  98.4259 337.9541 0009984 279.7357  80.2701 14.35237863695155
